{
  "type": "FeatureCollection",
  "features": [
    {
      "type": "Feature",
      "properties": {
        "norad_id": 33860,
        "name": "IRIDIUM 33 DEB",
        "group": "iridium-33-debris",
        "lat": -75.80030272073269,
        "lon": 10.303713714017594,
        "alt_km": 673.8544448277316,
        "timestamp": "2025-12-18T07:01:54.973940+00:00",
        "meta_object_name": "IRIDIUM 33 DEB",
        "meta_object_id": "1997-051AD",
        "meta_epoch": "2025-12-17T20:44:12.939360",
        "meta_mean_motion": 14.67430284,
        "meta_eccentricity": 0.00068026,
        "meta_inclination": 86.383,
        "meta_ra_of_asc_node": 24.9702,
        "meta_arg_of_pericenter": 338.9928,
        "meta_mean_anomaly": 200.2334,
        "meta_ephemeris_type": 0,
        "meta_classification_type": "U",
        "meta_norad_cat_id": 33860,
        "meta_element_set_no": 999,
        "meta_rev_at_epoch": 88797,
        "meta_bstar": 0.00087666322,
        "meta_mean_motion_dot": 4.982e-05,
        "meta_mean_motion_ddot": 0,
        "tle_line1": "1 33860U 97051AD  25351.86403865  .00004982  00000+0  87666-3 0  9996",
        "tle_line2": "2 33860  86.3830  24.9702 0006802 338.9928 200.2334 14.67430284887974"
      },
      "geometry": {
        "type": "Point",
        "coordinates": [
          10.303713714017594,
          -75.80030272073269
        ]
      }
    },
    {
      "type": "Feature",
      "properties": {
        "norad_id": 33862,
        "name": "IRIDIUM 33 DEB",
        "group": "iridium-33-debris",
        "lat": 0.8381203131708899,
        "lon": 35.1346253504384,
        "alt_km": 641.1422402225298,
        "timestamp": "2025-12-18T07:01:54.973952+00:00",
        "meta_object_name": "IRIDIUM 33 DEB",
        "meta_object_id": "1997-051AF",
        "meta_epoch": "2025-12-17T15:13:23.215008",
        "meta_mean_motion": 14.69553333,
        "meta_eccentricity": 0.00529911,
        "meta_inclination": 86.409,
        "meta_ra_of_asc_node": 35.3724,
        "meta_arg_of_pericenter": 52.7991,
        "meta_mean_anomaly": 66.1029,
        "meta_ephemeris_type": 0,
        "meta_classification_type": "U",
        "meta_norad_cat_id": 33862,
        "meta_element_set_no": 999,
        "meta_rev_at_epoch": 88895,
        "meta_bstar": 0.0010243514,
        "meta_mean_motion_dot": 6.236e-05,
        "meta_mean_motion_ddot": 0,
        "tle_line1": "1 33862U 97051AF  25351.63429647  .00006236  00000+0  10244-2 0  9990",
        "tle_line2": "2 33862  86.4090  35.3724 0052991  52.7991  66.1029 14.69553333888958"
      },
      "geometry": {
        "type": "Point",
        "coordinates": [
          35.1346253504384,
          0.8381203131708899
        ]
      }
    },
    {
      "type": "Feature",
      "properties": {
        "norad_id": 33866,
        "name": "IRIDIUM 33 DEB",
        "group": "iridium-33-debris",
        "lat": -83.555022988158,
        "lon": -54.3680440537202,
        "alt_km": 856.701533896583,
        "timestamp": "2025-12-18T07:01:54.973963+00:00",
        "meta_object_name": "IRIDIUM 33 DEB",
        "meta_object_id": "1997-051AK",
        "meta_epoch": "2025-12-17T18:44:06.185760",
        "meta_mean_motion": 14.25290921,
        "meta_eccentricity": 0.01148399,
        "meta_inclination": 86.3002,
        "meta_ra_of_asc_node": 90.9031,
        "meta_arg_of_pericenter": 145.4116,
        "meta_mean_anomaly": 10.8129,
        "meta_ephemeris_type": 0,
        "meta_classification_type": "U",
        "meta_norad_cat_id": 33866,
        "meta_element_set_no": 999,
        "meta_rev_at_epoch": 86882,
        "meta_bstar": 0.0004477839,
        "meta_mean_motion_dot": 1.149e-05,
        "meta_mean_motion_ddot": 0,
        "tle_line1": "1 33866U 97051AK  25351.78062715  .00001149  00000+0  44778-3 0  9997",
        "tle_line2": "2 33866  86.3002  90.9031 0114839 145.4116  10.8129 14.25290921868825"
      },
      "geometry": {
        "type": "Point",
        "coordinates": [
          -54.3680440537202,
          -83.555022988158
        ]
      }
    },
    {
      "type": "Feature",
      "properties": {
        "norad_id": 33867,
        "name": "IRIDIUM 33 DEB",
        "group": "iridium-33-debris",
        "lat": 9.586944646011325,
        "lon": -12.186913128644415,
        "alt_km": 334.4581573673304,
        "timestamp": "2025-12-18T07:01:54.973974+00:00",
        "meta_object_name": "IRIDIUM 33 DEB",
        "meta_object_id": "1997-051AL",
        "meta_epoch": "2025-12-17T17:17:38.563008",
        "meta_mean_motion": 15.77439013,
        "meta_eccentricity": 0.00137248,
        "meta_inclination": 86.3647,
        "meta_ra_of_asc_node": 347.4994,
        "meta_arg_of_pericenter": 92.8453,
        "meta_mean_anomaly": 267.4392,
        "meta_ephemeris_type": 0,
        "meta_classification_type": "U",
        "meta_norad_cat_id": 33867,
        "meta_element_set_no": 999,
        "meta_rev_at_epoch": 89589,
        "meta_bstar": 0.0066840387,
        "meta_mean_motion_dot": 0.01246262,
        "meta_mean_motion_ddot": 0,
        "tle_line1": "1 33867U 97051AL  25351.72058522  .01246262  00000+0  66840-2 0  9994",
        "tle_line2": "2 33867  86.3647 347.4994 0013724  92.8453 267.4392 15.77439013895893"
      },
      "geometry": {
        "type": "Point",
        "coordinates": [
          -12.186913128644415,
          9.586944646011325
        ]
      }
    },
    {
      "type": "Feature",
      "properties": {
        "norad_id": 33870,
        "name": "IRIDIUM 33 DEB",
        "group": "iridium-33-debris",
        "lat": 52.72960958378971,
        "lon": 60.659604559118364,
        "alt_km": 738.905533740256,
        "timestamp": "2025-12-18T07:01:54.973985+00:00",
        "meta_object_name": "IRIDIUM 33 DEB",
        "meta_object_id": "1997-051AP",
        "meta_epoch": "2025-12-17T16:26:11.652576",
        "meta_mean_motion": 14.45877028,
        "meta_eccentricity": 0.00219923,
        "meta_inclination": 86.3747,
        "meta_ra_of_asc_node": 56.1412,
        "meta_arg_of_pericenter": 162.2109,
        "meta_mean_anomaly": 327.5308,
        "meta_ephemeris_type": 0,
        "meta_classification_type": "U",
        "meta_norad_cat_id": 33870,
        "meta_element_set_no": 999,
        "meta_rev_at_epoch": 88208,
        "meta_bstar": 0.00054897647,
        "meta_mean_motion_dot": 1.975e-05,
        "meta_mean_motion_ddot": 0,
        "tle_line1": "1 33870U 97051AP  25351.68485709  .00001975  00000+0  54898-3 0  9994",
        "tle_line2": "2 33870  86.3747  56.1412 0021992 162.2109 327.5308 14.45877028882081"
      },
      "geometry": {
        "type": "Point",
        "coordinates": [
          60.659604559118364,
          52.72960958378971
        ]
      }
    },
    {
      "type": "Feature",
      "properties": {
        "norad_id": 33881,
        "name": "IRIDIUM 33 DEB",
        "group": "iridium-33-debris",
        "lat": 43.79144962717666,
        "lon": -79.14508838762063,
        "alt_km": 659.5770688534576,
        "timestamp": "2025-12-18T07:01:54.973997+00:00",
        "meta_object_name": "IRIDIUM 33 DEB",
        "meta_object_id": "1997-051BA",
        "meta_epoch": "2025-12-17T13:59:16.230336",
        "meta_mean_motion": 14.56660218,
        "meta_eccentricity": 0.00614907,
        "meta_inclination": 86.386,
        "meta_ra_of_asc_node": 104.6373,
        "meta_arg_of_pericenter": 159.0678,
        "meta_mean_anomaly": 215.4693,
        "meta_ephemeris_type": 0,
        "meta_classification_type": "U",
        "meta_norad_cat_id": 33881,
        "meta_element_set_no": 999,
        "meta_rev_at_epoch": 87571,
        "meta_bstar": 0.0015160031,
        "meta_mean_motion_dot": 6.964e-05,
        "meta_mean_motion_ddot": 0,
        "tle_line1": "1 33881U 97051BA  25351.58282674  .00006964  00000+0  15160-2 0  9992",
        "tle_line2": "2 33881  86.3860 104.6373 0061490 159.0678 215.4693 14.56660218875713"
      },
      "geometry": {
        "type": "Point",
        "coordinates": [
          -79.14508838762063,
          43.79144962717666
        ]
      }
    },
    {
      "type": "Feature",
      "properties": {
        "norad_id": 33884,
        "name": "IRIDIUM 33 DEB",
        "group": "iridium-33-debris",
        "lat": 40.53347513504398,
        "lon": -175.7999782624364,
        "alt_km": 640.3002254098037,
        "timestamp": "2025-12-18T07:01:54.974008+00:00",
        "meta_object_name": "IRIDIUM 33 DEB",
        "meta_object_id": "1997-051BD",
        "meta_epoch": "2025-12-17T13:04:54.280416",
        "meta_mean_motion": 14.77523621,
        "meta_eccentricity": 0.00093111,
        "meta_inclination": 86.3696,
        "meta_ra_of_asc_node": 7.6497,
        "meta_arg_of_pericenter": 305.3412,
        "meta_mean_anomaly": 178.2939,
        "meta_ephemeris_type": 0,
        "meta_classification_type": "U",
        "meta_norad_cat_id": 33884,
        "meta_element_set_no": 999,
        "meta_rev_at_epoch": 88918,
        "meta_bstar": 0.0011919689,
        "meta_mean_motion_dot": 8.535e-05,
        "meta_mean_motion_ddot": 0,
        "tle_line1": "1 33884U 97051BD  25351.54507269  .00008535  00000+0  11920-2 0  9997",
        "tle_line2": "2 33884  86.3696   7.6497 0009311 305.3412 178.2939 14.77523621889182"
      },
      "geometry": {
        "type": "Point",
        "coordinates": [
          -175.7999782624364,
          40.53347513504398
        ]
      }
    }
  ]
}